[{"OBJECT_NAME":"STARLINK-4300","OBJECT_ID":"2022-083AT","EPOCH":"2026-03-09T11:11:27.442176","MEAN_MOTION":15.08844016,"ECCENTRICITY":0.00012528,"INCLINATION":53.2153,"RA_OF_ASC_NODE":140.1125,"ARG_OF_PERICENTER":83.9868,"MEAN_ANOMALY":276.1267,"EPHEMERIS_TYPE":0,"CLASSIFICATION_TYPE":"U","NORAD_CAT_ID":53173,"ELEMENT_SET_NO":999,"REV_AT_EPOCH":20166,"BSTAR":7.551612e-6,"MEAN_MOTION_DOT":-1.68e-6,"MEAN_MOTION_DDOT":0},{"OBJECT_NAME":"AAC-HSI-SAT1","OBJECT_ID":"2023-054AZ","EPOCH":"2026-03-09T21:58:39.446112","MEAN_MOTION":15.121108,"ECCENTRICITY":0.00115868,"INCLINATION":97.3836,"RA_OF_ASC_NODE":308.6521,"ARG_OF_PERICENTER":105.3166,"MEAN_ANOMALY":254.9346,"EPHEMERIS_TYPE":0,"CLASSIFICATION_TYPE":"U","NORAD_CAT_ID":56225,"ELEMENT_SET_NO":999,"REV_AT_EPOCH":16036,"BSTAR":0.00016323049,"MEAN_MOTION_DOT":2.752e-5,"MEAN_MOTION_DDOT":0}]
